OBJECT_NAME,OBJECT_ID,EPOCH,MEAN_MOTION,ECCENTRICITY,INCLINATION,RA_OF_ASC_NODE,ARG_OF_PERICENTER,MEAN_ANOMALY,EPHEMERIS_TYPE,CLASSIFICATION_TYPE,NORAD_CAT_ID,ELEMENT_SET_NO,REV_AT_EPOCH,BSTAR,MEAN_MOTION_DOT,MEAN_MOTION_DDOT
STARLINK-36537,2026-012Z,2026-04-23T05:15:28.141344,15.27582229,.00012985,43.0012,62.7710,272.3739,87.6964,0,U,67516,999,1457,.66280543E-3,.18023E-3,0
STARLINK-36544,2026-012AA,2026-04-23T05:24:41.822784,15.27592591,.00027146,43.0054,62.8232,271.1173,88.9368,0,U,67517,999,1457,-.26410762E-3,-.7527E-4,0
STARLINK-36412,2026-012AB,2026-04-23T04:58:47.316576,15.27580964,.000148,42.9999,62.6854,269.4652,90.6030,0,U,67518,999,1457,-.34098979E-3,-.9634E-4,0
STARLINK-36415,2026-012AC,2026-04-23T04:53:15.731520,15.27590573,.0001465,43.0014,62.6497,269.3684,90.7000,0,U,67519,999,1457,.69542875E-3,.1893E-3,0
STARLINK-36547,2026-012AD,2026-04-23T06:38:31.731360,15.27573191,.00013365,43.0001,62.3457,268.7139,91.3560,0,U,67520,999,1458,.38049153E-3,.10221E-3,0
STARLINK-36444,2026-012AE,2026-04-23T05:09:55.529856,15.27583252,.00005021,42.9957,62.7480,312.9241,47.1568,0,U,67521,999,1457,.79212287E-3,.21602E-3,0
STARLINK-36587,2026-014A,2026-04-23T06:00:02.000160,15.70416609,.00018316,97.2846,0.4297,108.3183,166.6298,0,U,67532,999,600,-.18303009E-1,-.1973253E-1,0
STARLINK-36417,2026-014B,2026-04-23T04:42:06.045120,15.75244013,.00017183,97.2874,0.2278,94.1845,265.9617,0,U,67533,999,1557,.68183988E-3,.103049E-2,0
STARLINK-36576,2026-014C,2026-04-23T05:21:44.973216,15.75203266,.00020098,97.2845,0.3465,87.4859,272.6636,0,U,67534,999,1558,.11312273E-2,.172148E-2,0
STARLINK-36574,2026-014D,2026-04-23T06:00:02.000160,15.68878456,.00020872,97.2850,0.4007,92.7765,106.9763,0,U,67535,999,600,-.19125583E-1,-.1938763E-1,0
STARLINK-36572,2026-014E,2026-04-23T05:53:45.714336,15.75226563,.00022096,97.2862,0.3142,71.9003,288.2503,0,U,67536,999,1558,.98138236E-3,.149075E-2,0
STARLINK-36561,2026-014F,2026-04-23T06:02:56.412384,15.73031732,.00022867,97.2831,0.3051,157.1124,203.0242,0,U,67537,999,1558,-.63982468E-3,-.86261E-3,0
STARLINK-36397,2026-014G,2026-04-22T22:30:37.197792,15.75115519,.0005245,97.2847,359.9682,122.0178,238.1597,0,U,67538,999,1553,.5797E-3,.87002E-3,0
STARLINK-36573,2026-014H,2026-04-23T05:10:34.579200,15.75202482,.00030927,97.2851,0.3568,83.1001,277.0616,0,U,67539,999,1558,.11871172E-2,.180858E-2,0
STARLINK-36585,2026-014J,2026-04-23T05:56:18.161088,15.75231224,.00021363,97.2859,0.3111,84.9199,275.2310,0,U,67540,999,1558,.94856602E-3,.144029E-2,0
STARLINK-36579,2026-014K,2026-04-23T05:45:07.386912,15.75195835,.00019673,97.2864,0.3239,60.2268,299.9193,0,U,67541,999,1558,.11241982E-2,.170999E-2,0
STARLINK-35934,2026-014L,2026-04-23T04:56:21.215040,15.75179818,.00040969,97.2867,0.3715,67.3816,292.7882,0,U,67542,999,1557,.10328918E-2,.156775E-2,0
STARLINK-36581,2026-014M,2026-04-23T05:07:31.109664,15.75197501,.00018424,97.2844,0.3596,102.8419,257.3052,0,U,67543,999,1558,.13871727E-2,.212067E-2,0
STARLINK-36565,2026-014N,2026-04-23T05:16:09.677280,15.75187217,.00024077,97.2858,0.3524,75.4683,284.6849,0,U,67544,999,1558,.14060513E-2,.21494E-2,0
STARLINK-36583,2026-014P,2026-04-23T05:50:43.051776,15.75191348,.00025282,97.2863,0.3185,70.5940,289.5598,0,U,67545,999,1558,.12174008E-2,.185475E-2,0
STARLINK-36580,2026-014Q,2026-04-23T05:24:47.923488,15.75196953,.00021111,97.2854,0.3438,77.6472,282.5029,0,U,67546,999,1558,.12610885E-2,.19233E-2,0
STARLINK-36584,2026-014R,2026-04-23T04:59:23.895744,15.75199426,.00028111,97.2861,0.3679,79.4109,280.7473,0,U,67547,999,1558,.10826277E-2,.164585E-2,0
STARLINK-36586,2026-014S,2026-04-23T05:59:22.978464,15.75257947,.0001788,97.2857,0.4653,79.2849,280.8617,0,U,67548,999,1559,.1961804E-2,.30404E-2,0
STARLINK-36564,2026-014T,2026-04-23T07:07:58.833408,15.75377117,.00045805,97.2864,0.4002,44.2900,315.8731,0,U,67549,999,1553,.12558706E-2,.193121E-2,0
STARLINK-36563,2026-014U,2026-04-23T05:30:23.635008,15.75190553,.00033335,97.2869,0.3382,56.9477,303.2108,0,U,67550,999,1558,.11248622E-2,.171088E-2,0
STARLINK-36566,2026-014V,2026-04-23T05:27:26.865792,15.74185189,.00019389,97.2840,0.3420,175.8791,184.2490,0,U,67551,999,1557,-.21572384E-4,-.3208E-4,0
STARLINK-36567,2026-014W,2026-04-23T06:00:02.000160,15.67610163,.00014571,97.2856,0.3390,99.9103,316.2919,0,U,67552,999,600,-.20125549E-1,-.193628E-1,0
STARLINK-36569,2026-014X,2026-04-23T05:01:56.460864,15.75207214,.00040612,97.2843,0.3645,52.8919,307.2717,0,U,67553,999,1557,.14182659E-2,.217098E-2,0
STARLINK-36395,2026-014Y,2026-04-23T05:31:24.162528,15.75199263,.00020857,97.2848,0.3389,89.0508,271.0996,0,U,67554,999,1557,.13150885E-2,.200791E-2,0
STARLINK-36559,2026-014Z,2026-04-23T05:33:26.162784,15.75299233,.0001586,97.2851,0.3362,83.4883,276.6563,0,U,67555,999,1557,.14284714E-2,.219539E-2,0
