STARLINK-36537          
1 67516U 26012Z   26113.21907571  .00018023  00000+0  66281-3 0  9990
2 67516  43.0012  62.7710 0001298 272.3739  87.6964 15.27582229 14573
STARLINK-36544          
1 67517U 26012AA  26113.22548406 -.00007527  00000+0 -26411-3 0  9990
2 67517  43.0054  62.8232 0002714 271.1173  88.9368 15.27592591 14578
STARLINK-36412          
1 67518U 26012AB  26113.20749209 -.00009634  00000+0 -34099-3 0  9995
2 67518  42.9999  62.6854 0001480 269.4652  90.6030 15.27580964 14571
STARLINK-36415          
1 67519U 26012AC  26113.20365430  .00018930  00000+0  69543-3 0  9995
2 67519  43.0014  62.6497 0001465 269.3684  90.7000 15.27590573 14577
STARLINK-36547          
1 67520U 26012AD  26113.27675615  .00010221  00000+0  38049-3 0  9995
2 67520  43.0001  62.3457 0001336 268.7139  91.3560 15.27573191 14589
STARLINK-36444          
1 67521U 26012AE  26113.21522604  .00021602  00000+0  79212-3 0  9991
2 67521  42.9957  62.7480 0000502 312.9241  47.1568 15.27583252 14573
STARLINK-36587          
1 67532U 26014A   26113.25002315 -.01973253  00000+0 -18303-1 0  9994
2 67532  97.2846   0.4297 0001831 108.3183 166.6298 15.70416609  6003
STARLINK-36417          
1 67533U 26014B   26113.19590330  .00103049  00000+0  68184-3 0  9996
2 67533  97.2874   0.2278 0001718  94.1845 265.9617 15.75244013 15576
STARLINK-36576          
1 67534U 26014C   26113.22343719  .00172148  00000+0  11312-2 0  9994
2 67534  97.2845   0.3465 0002009  87.4859 272.6636 15.75203266 15580
STARLINK-36574          
1 67535U 26014D   26113.25002315 -.01938763  00000+0 -19126-1 0  9998
2 67535  97.2850   0.4007 0002087  92.7765 106.9763 15.68878456  6009
STARLINK-36572          
1 67536U 26014E   26113.24566799  .00149075  00000+0  98138-3 0  9998
2 67536  97.2862   0.3142 0002209  71.9003 288.2503 15.75226563 15585
STARLINK-36561          
1 67537U 26014F   26113.25204181 -.00086261  00000+0 -63982-3 0  9992
2 67537  97.2831   0.3051 0002286 157.1124 203.0242 15.73031732 15582
STARLINK-36397          
1 67538U 26014G   26112.93793053  .00087002  00000+0  57970-3 0  9990
2 67538  97.2847 359.9682 0005245 122.0178 238.1597 15.75115519 15536
STARLINK-36573          
1 67539U 26014H   26113.21567800  .00180858  00000+0  11871-2 0  9994
2 67539  97.2851   0.3568 0003092  83.1001 277.0616 15.75202482 15587
STARLINK-36585          
1 67540U 26014J   26113.24743242  .00144029  00000+0  94857-3 0  9991
2 67540  97.2859   0.3111 0002136  84.9199 275.2310 15.75231224 15583
STARLINK-36579          
1 67541U 26014K   26113.23966883  .00170999  00000+0  11242-2 0  9990
2 67541  97.2864   0.3239 0001967  60.2268 299.9193 15.75195835 15585
STARLINK-35934          
1 67542U 26014L   26113.20580110  .00156775  00000+0  10329-2 0  9994
2 67542  97.2867   0.3715 0004096  67.3816 292.7882 15.75179818 15579
STARLINK-36581          
1 67543U 26014M   26113.21355451  .00212067  00000+0  13872-2 0  9997
2 67543  97.2844   0.3596 0001842 102.8419 257.3052 15.75197501 15588
STARLINK-36565          
1 67544U 26014N   26113.21955645  .00214940  00000+0  14061-2 0  9992
2 67544  97.2858   0.3524 0002407  75.4683 284.6849 15.75187217 15581
STARLINK-36583          
1 67545U 26014P   26113.24355384  .00185475  00000+0  12174-2 0  9993
2 67545  97.2863   0.3185 0002528  70.5940 289.5598 15.75191348 15582
STARLINK-36580          
1 67546U 26014Q   26113.22555467  .00192330  00000+0  12611-2 0  9990
2 67546  97.2854   0.3438 0002111  77.6472 282.5029 15.75196953 15589
STARLINK-36584          
1 67547U 26014R   26113.20791546  .00164585  00000+0  10826-2 0  9996
2 67547  97.2861   0.3679 0002811  79.4109 280.7473 15.75199426 15580
STARLINK-36586          
1 67548U 26014S   26113.24957151  .00304040  00000+0  19618-2 0  9997
2 67548  97.2857   0.4653 0001788  79.2849 280.8617 15.75257947 15595
STARLINK-36564          
1 67549U 26014T   26113.29720872  .00193121  00000+0  12559-2 0  9994
2 67549  97.2864   0.4002 0004580  44.2900 315.8731 15.75377117 15537
STARLINK-36563          
1 67550U 26014U   26113.22944022  .00171088  00000+0  11249-2 0  9997
2 67550  97.2869   0.3382 0003333  56.9477 303.2108 15.75190553 15589
STARLINK-36566          
1 67551U 26014V   26113.22739428 -.00003208  00000+0 -21572-4 0  9992
2 67551  97.2840   0.3420 0001938 175.8791 184.2490 15.74185189 15579
STARLINK-36567          
1 67552U 26014W   26113.25002315 -.01936280  00000+0 -20126-1 0  9991
2 67552  97.2856   0.3390 0001457  99.9103 316.2919 15.67610163  6000
STARLINK-36569          
1 67553U 26014X   26113.20968126  .00217098  00000+0  14183-2 0  9991
2 67553  97.2843   0.3645 0004061  52.8919 307.2717 15.75207214 15573
STARLINK-36395          
1 67554U 26014Y   26113.23014077  .00200791  00000+0  13151-2 0  9998
2 67554  97.2848   0.3389 0002085  89.0508 271.0996 15.75199263 15575
STARLINK-36559          
1 67555U 26014Z   26113.23155281  .00219539  00000+0  14285-2 0  9991
2 67555  97.2851   0.3362 0001586  83.4883 276.6563 15.75299233 15579
